SAR-LUPE 2              
1 31797U 07030A   26165.18301919  .00033114  00000+0  60028-3 0  9999
2 31797  98.1042 269.2435 0006263 144.3142 215.8526 15.49541028 56470
SAPPHIRE                
1 39088U 13009C   26165.16411690  .00000098  00000+0  49194-4 0  9996
2 39088  98.4259 344.6918 0010008 256.7062 103.3008 14.35239766696146
PRAETORIAN SDA_602      
1 65565U 25203A   26165.06072094  .00000056  00000+0  39549-4 0  9991
2 65565  81.3032  13.6652 0005605 192.7622 167.3394 13.84342439 38267
PRAETORIAN SDA_603      
1 65566U 25203B   26165.08642072  .00000137  00000+0  11319-3 0  9997
2 65566  81.3039  13.5559 0009156 196.1171 163.9695 13.83905023 38272
PRAETORIAN SDA_604      
1 65567U 25203C   26165.10421558  .00000059  00000+0  43352-4 0  9991
2 65567  81.3054  13.9469 0005099 200.4643 159.6309 13.83047181 38253
PRAETORIAN SDA_605      
1 65568U 25203D   26165.07040916  .00000050  00000+0  34330-4 0  9990
2 65568  81.3019  13.6441 0007917 191.6432 168.4542 13.83433926 38264
PRAETORIAN SDA_606      
1 65569U 25203E   26165.05289595  .00000071  00000+0  53329-4 0  9999
2 65569  81.3056  13.8808 0005551 189.6148 170.4903 13.83407085 38258
PRAETORIAN SDA_607      
1 65570U 25203F   26165.06291412  .00000154  00000+0  12767-3 0  9995
2 65570  81.3039  13.5397 0008472 196.2774 163.8112 13.84284145 38276
PRAETORIAN SDA_608      
1 65571U 25203G   26165.11156125  .00000052  00000+0  36557-4 0  9994
2 65571  81.3007  13.6550 0005610 199.6138 160.4804 13.83816469 38265
PRAETORIAN SDA_609      
1 65572U 25203H   26164.97277958  .00000157  00000+0  13016-3 0  9996
2 65572  81.3050  13.7671 0006501 194.2923 165.8051 13.84211998 38251
PRAETORIAN SDA_610      
1 65573U 25203J   26165.09139422  .00000046  00000+0  30984-4 0  9995
2 65573  81.3008  13.6318 0006270 197.2387 162.8558 13.83851604 38265
PRAETORIAN SDA_611      
1 65574U 25203K   26165.09096161 -.00000090  00000+0 -93119-4 0  9998
2 65574  81.3011  13.7960 0005146 203.8188 156.2730 13.83308864 38251
PRAETORIAN SDA_612      
1 65575U 25203L   26165.08443940  .00000205  00000+0  17081-3 0  9998
2 65575  81.3028  13.3952 0008892 195.7360 164.3522 13.85038853 38281
PRAETORIAN SDA_613      
1 65576U 25203M   26165.09649032  .00000051  00000+0  35684-4 0  9999
2 65576  81.3000  13.7848 0005382 192.6340 167.4682 13.82764768 38251
PRAETORIAN SDA_614      
1 65577U 25203N   26165.07303082  .00000032  00000+0  18200-4 0  9994
2 65577  81.3015  13.4829 0006826 192.4726 167.6263 13.84777824 38283
PRAETORIAN SDA_615      
1 65578U 25203P   26165.04914973  .00000148  00000+0  12123-3 0  9994
2 65578  81.3026  13.4668 0008745 193.8949 166.1968 13.84435969 38277
PRAETORIAN SDA_616      
1 65579U 25203Q   26165.09008292  .00000164  00000+0  13869-3 0  9994
2 65579  81.3063  13.9392 0005035 201.6790 158.4154 13.83267593 38253
PRAETORIAN SDA_617      
1 65580U 25203R   26164.96674653  .00000031  00000+0  17759-4 0  9997
2 65580  81.3037  13.8848 0007086 193.0606 167.0368 13.83149851 38247
PRAETORIAN SDA_618      
1 65581U 25203S   26165.08798764  .00000123  00000+0  98794-4 0  9992
2 65581  81.3021  13.3621 0009450 196.4959 163.5892 13.84669091 38281
PRAETORIAN SDA_619      
1 65582U 25203T   26165.04969792  .00000156  00000+0  12991-3 0  9990
2 65582  81.3046  13.6892 0007924 194.3598 165.7335 13.83805368 38893
PRAETORIAN SDA_620      
1 65583U 25203U   26165.07726220  .00000200  00000+0  17038-3 0  9998
2 65583  81.3029  13.6841 0007320 189.6506 170.4511 13.83617963 38267
PRAETORIAN SDA_621      
1 65584U 25203V   26165.05146087  .00000053  00000+0  37517-4 0  9995
2 65584  81.3022  13.6273 0007186 187.2371 172.8683 13.83800889 38261
PRAETORIAN SDA_601      
1 65585U 25203W   26165.09299422 -.00000055  00000+0 -61392-4 0  9994
2 65585  81.3039  13.8823 0005053 205.1481 154.9429 13.83167414 38254
